[Satellite]
VERSION=1.1
NAME=SL-16 R/B
NICKNAME=SL-16 R/B
TLE1=1 25400U 98043G   17186.25454070 -.00000025  00000-0  74159-5 0  9994
TLE2=2 25400  98.4894 133.8993 0008784 239.8110 120.2200 14.25413209987420
